prediction:
  azimuth_start: 197
  azimuth_stop: 336
  azimuth_tca: null
  max_elevation: 24
  tca: null
  time_start: 2020-04-23 20:24:00
  time_stop: 2020-04-23 20:37:00
satellite:
  name: Delfi-C3
  noradid: '32789'
  tle:
    line1: 1 32789U 08021G   20113.38548157 +.00001396 +00000-0 +95539-4 0  9992
    line2: 2 32789 097.4243 158.1340 0013272 142.3872 217.8287 15.07614422653364
station:
  name: DopTrack
  position:
    altitude: 95
    latitude: 51.9989
    longitude: 4.3733585
tracking:
  epoch: 2020-04-23 20:24:03.098456
  fca: 145868830.01406235
  fca_error: 0.40149948473617825
  tca: 2020-04-23 20:31:18.198262
  tca_error: 0.026579310879176497
